$$SOE
2461302.500000000, A.D. 2026-Sep-19 00:00:00.0000, -2.095348335724436E+09, 2.048647872850749E+09, 8.897918980465813E+08,
2461309.500000000, A.D. 2026-Sep-26 00:00:00.0000, -2.096559367302954E+09, 2.053075234314049E+09, 8.906035875418125E+08,
2461316.500000000, A.D. 2026-Oct-03 00:00:00.0000, -2.097766837637696E+09, 2.057499080150581E+09, 8.914137744242662E+08,
2461323.500000000, A.D. 2026-Oct-10 00:00:00.0000, -2.098970758895750E+09, 2.061919414380158E+09, 8.922224632672324E+08,
2461330.500000000, A.D. 2026-Oct-17 00:00:00.0000, -2.100171142801204E+09, 2.066336240869837E+09, 8.930296585979958E+08,
2461337.500000000, A.D. 2026-Oct-24 00:00:00.0000, -2.101368000697410E+09, 2.070749563307035E+09, 8.938353648957888E+08,
2461344.500000000, A.D. 2026-Oct-31 00:00:00.0000, -2.102561343521038E+09, 2.075159385009902E+09, 8.946395865677124E+08,
2461351.500000000, A.D. 2026-Nov-07 00:00:00.0000, -2.103751181348845E+09, 2.079565708649066E+09, 8.954423278777368E+08,
2461358.500000000, A.D. 2026-Nov-14 00:00:00.0000, -2.104937522316287E+09, 2.083968536768173E+09, 8.962435928830844E+08,
2461365.500000000, A.D. 2026-Nov-21 00:00:00.0000, -2.106120372719731E+09, 2.088367873785074E+09, 8.970433856001232E+08,
2461372.500000000, A.D. 2026-Nov-28 00:00:00.0000, -2.107299739300348E+09, 2.092763726465629E+09, 8.978417102457473E+08,
2461379.500000000, A.D. 2026-Dec-05 00:00:00.0000, -2.108475630090163E+09, 2.097156102213772E+09, 8.986385711689111E+08,
2461386.500000000, A.D. 2026-Dec-12 00:00:00.0000, -2.109648053655322E+09, 2.101545008288843E+09, 8.994339727117316E+08,
2461393.500000000, A.D. 2026-Dec-19 00:00:00.0000, -2.110817018623858E+09, 2.105930451956587E+09, 9.002279191740183E+08,
2461400.500000000, A.D. 2026-Dec-26 00:00:00.0000, -2.111982533640368E+09, 2.110312440705769E+09, 9.010204148236001E+08,
2461407.500000000, A.D. 2027-Jan-02 00:00:00.0000, -2.113144607472039E+09, 2.114690982339354E+09, 9.018114639116921E+08,
2461414.500000000, A.D. 2027-Jan-09 00:00:00.0000, -2.114303249149686E+09, 2.119066084960259E+09, 9.026010706843735E+08,
2461421.500000000, A.D. 2027-Jan-16 00:00:00.0000, -2.115458468109505E+09, 2.123437756860267E+09, 9.033892393877126E+08,
2461428.500000000, A.D. 2027-Jan-23 00:00:00.0000, -2.116610274290986E+09, 2.127806006272280E+09, 9.041759742591141E+08,
2461435.500000000, A.D. 2027-Jan-30 00:00:00.0000, -2.117758678004826E+09, 2.132170840937936E+09, 9.049612794837275E+08,
2461442.500000000, A.D. 2027-Feb-06 00:00:00.0000, -2.118903689147783E+09, 2.136532267830465E+09, 9.057451591046599E+08,
2461449.500000000, A.D. 2027-Feb-13 00:00:00.0000, -2.120045316226329E+09, 2.140890294252321E+09, 9.065276170287585E+08,
2461456.500000000, A.D. 2027-Feb-20 00:00:00.0000, -2.121183567554299E+09, 2.145244929516524E+09, 9.073086572799491E+08,
2461463.500000000, A.D. 2027-Feb-27 00:00:00.0000, -2.122318453229586E+09, 2.149596183997946E+09, 9.080882841092710E+08,
2461470.500000000, A.D. 2027-Mar-06 00:00:00.0000, -2.123449984872352E+09, 2.153944067477155E+09, 9.088665018417174E+08,
2461477.500000000, A.D. 2027-Mar-13 00:00:00.0000, -2.124578174725327E+09, 2.158288588826221E+09, 9.096433147739387E+08,
2461484.500000000, A.D. 2027-Mar-20 00:00:00.0000, -2.125703035245748E+09, 2.162629756201881E+09, 9.104187271580061E+08,
2461491.500000000, A.D. 2027-Mar-27 00:00:00.0000, -2.126824578986966E+09, 2.166967577197089E+09, 9.111927432077179E+08,
2461498.500000000, A.D. 2027-Apr-03 00:00:00.0000, -2.127942818566836E+09, 2.171302058903240E+09, 9.119653671048062E+08,
2461505.500000000, A.D. 2027-Apr-10 00:00:00.0000, -2.129057766661640E+09, 2.175633207906109E+09, 9.127366030012585E+08,
2461512.500000000, A.D. 2027-Apr-17 00:00:00.0000, -2.130169436003467E+09, 2.179961030201219E+09, 9.135064550145041E+08,
2461519.500000000, A.D. 2027-Apr-24 00:00:00.0000, -2.131277839301837E+09, 2.184285530966448E+09, 9.142749272030941E+08,
2461526.500000000, A.D. 2027-May-01 00:00:00.0000, -2.132382988789951E+09, 2.188606714219711E+09, 9.150420234976640E+08,
2461533.500000000, A.D. 2027-May-08 00:00:00.0000, -2.133484895088138E+09, 2.192924583110096E+09, 9.158077476201558E+08,
2461540.500000000, A.D. 2027-May-15 00:00:00.0000, -2.134583566881412E+09, 2.197239141795892E+09, 9.165721032065258E+08,
2461547.500000000, A.D. 2027-May-22 00:00:00.0000, -2.135679012974977E+09, 2.201550396317909E+09, 9.173350940646107E+08,
2461554.500000000, A.D. 2027-May-29 00:00:00.0000, -2.136771243371753E+09, 2.205858352999834E+09, 9.180967241394310E+08,
2461561.500000000, A.D. 2027-Jun-05 00:00:00.0000, -2.137860268487107E+09, 2.210163017507369E+09, 9.188569973608044E+08,
2461568.500000000, A.D. 2027-Jun-12 00:00:00.0000, -2.138946098508284E+09, 2.214464394997944E+09, 9.196159175927991E+08,
2461575.500000000, A.D. 2027-Jun-19 00:00:00.0000, -2.140028743229591E+09, 2.218762490426007E+09, 9.203734886391063E+08,
2461582.500000000, A.D. 2027-Jun-26 00:00:00.0000, -2.141108212083897E+09, 2.223057308742557E+09, 9.211297142575492E+08,
2461589.500000000, A.D. 2027-Jul-03 00:00:00.0000, -2.142184514238328E+09, 2.227348854997230E+09, 9.218845981724828E+08,
2461596.500000000, A.D. 2027-Jul-10 00:00:00.0000, -2.143257658717318E+09, 2.231637134351668E+09, 9.226381440826687E+08,
2461603.500000000, A.D. 2027-Jul-17 00:00:00.0000, -2.144327654516660E+09, 2.235922151965297E+09, 9.233903556583592E+08,
2461610.500000000, A.D. 2027-Jul-24 00:00:00.0000, -2.145394510552132E+09, 2.240203912690702E+09, 9.241412365083604E+08,
2461617.500000000, A.D. 2027-Jul-31 00:00:00.0000, -2.146458235031269E+09, 2.244482420814146E+09, 9.248907900988165E+08,
2461624.500000000, A.D. 2027-Aug-07 00:00:00.0000, -2.147518834449009E+09, 2.248757680992922E+09, 9.256390197364177E+08,
2461631.500000000, A.D. 2027-Aug-14 00:00:00.0000, -2.148576314508317E+09, 2.253029700136245E+09, 9.263859288065048E+08,
2461638.500000000, A.D. 2027-Aug-21 00:00:00.0000, -2.149630682347586E+09, 2.257298486865513E+09, 9.271315209344629E+08,
2461645.500000000, A.D. 2027-Aug-28 00:00:00.0000, -2.150681946643736E+09, 2.261564049757124E+09, 9.278757998540264E+08,
2461652.500000000, A.D. 2027-Sep-04 00:00:00.0000, -2.151730116772175E+09, 2.265826396870183E+09, 9.286187692952017E+08,
2461659.500000000, A.D. 2027-Sep-11 00:00:00.0000, -2.152775202418923E+09, 2.270085535897780E+09, 9.293604329655279E+08,
2461666.500000000, A.D. 2027-Sep-18 00:00:00.0000, -2.153817213511718E+09, 2.274341474291778E+09, 9.301007945590950E+08,
2461673.500000000, A.D. 2027-Sep-25 00:00:00.0000, -2.154856160241250E+09, 2.278594219283686E+09, 9.308398577657123E+08,
2461680.500000000, A.D. 2027-Oct-02 00:00:00.0000, -2.155892053097452E+09, 2.282843777829556E+09, 9.315776262753317E+08,
2461687.500000000, A.D. 2027-Oct-09 00:00:00.0000, -2.156924902898326E+09, 2.287090156474759E+09, 9.323141037750475E+08,
2461694.500000000, A.D. 2027-Oct-16 00:00:00.0000, -2.157954720748049E+09, 2.291333361084198E+09, 9.330492939281632E+08,
2461701.500000000, A.D. 2027-Oct-23 00:00:00.0000, -2.158981517664338E+09, 2.295573396432666E+09, 9.337832003108406E+08,
2461708.500000000, A.D. 2027-Oct-30 00:00:00.0000, -2.160005303500241E+09, 2.299810266266019E+09, 9.345158263217003E+08,
2461715.500000000, A.D. 2027-Nov-06 00:00:00.0000, -2.161026086323658E+09, 2.304043974961585E+09, 9.352471752631688E+08,
2461722.500000000, A.D. 2027-Nov-13 00:00:00.0000, -2.162043874239972E+09, 2.308274528711835E+09, 9.359772506069317E+08,
2461729.500000000, A.D. 2027-Nov-20 00:00:00.0000, -2.163058676755857E+09, 2.312501934045607E+09, 9.367060559986899E+08,
2461736.500000000, A.D. 2027-Nov-27 00:00:00.0000, -2.164070504066664E+09, 2.316726196651466E+09, 9.374335950961527E+08,
2461743.500000000, A.D. 2027-Dec-04 00:00:00.0000, -2.165079366290934E+09, 2.320947321417199E+09, 9.381598715005875E+08,
2461750.500000000, A.D. 2027-Dec-11 00:00:00.0000, -2.166085273202591E+09, 2.325165312721577E+09, 9.388848887536931E+08,
2461757.500000000, A.D. 2027-Dec-18 00:00:00.0000, -2.167088234185862E+09, 2.329380174639366E+09, 9.396086503469422E+08,
2461764.500000000, A.D. 2027-Dec-25 00:00:00.0000, -2.168088258260898E+09, 2.333591911057519E+09, 9.403311597293649E+08,
2461771.500000000, A.D. 2028-Jan-01 00:00:00.0000, -2.169085354138708E+09, 2.337800525717272E+09, 9.410524203112749E+08,
$$EOE